{"type":"Feature","properties":{"MUN":"JERSEY CITY","COUNTY":"HUDSON","MUN_LABEL":"Jersey City","MUN_TYPE":"City","NAME":"Jersey City","GNIS_NAME":"City of Jersey City","partNames":["Jersey City E","Jersey City W"]},"geometry":{"type":"MultiPolygon","coordinates":[[[[-74.0996939,40.6853946],[-74.0460851,40.7574858],[-74.0458221,40.757392],[-74.0455166,40.7572831],[-74.0448154,40.7570208],[-74.0445725,40.75693],[-74.0436513,40.7565944],[-74.0436043,40.7564147],[-74.0434258,40.7557596],[-74.0433844,40.7556078],[-74.043251,40.755118],[-74.0431779,40.7548593],[-74.0429397,40.7540169],[-74.0429324,40.7539909],[-74.0427963,40.7535092],[-74.0426253,40.7529093],[-74.0425787,40.7527517],[-74.0425239,40.7526274],[-74.042445,40.7525091],[-74.042374,40.752424],[-74.0422632,40.7523358],[-74.0421483,40.7522567],[-74.0420134,40.7521865],[-74.041339,40.751932],[-74.0409355,40.7517797],[-74.0408465,40.7517461],[-74.0404532,40.7516009],[-74.039586,40.7512809],[-74.0395286,40.7512596],[-74.038806,40.7510025],[-74.0388013,40.7509884],[-74.038777,40.7509157],[-74.0387704,40.750896],[-74.0386834,40.7508455],[-74.0379147,40.7503982],[-74.0379008,40.7503902],[-74.0377532,40.7503043],[-74.0377322,40.7502921],[-74.0377293,40.7502904],[-74.0377683,40.7502275],[-74.0378361,40.7501183],[-74.0379262,40.7499395],[-74.0382686,40.7492603],[-74.0383405,40.7491308],[-74.0384118,40.7490025],[-74.0389532,40.7480283],[-74.0389541,40.7480266],[-74.0389823,40.7479759],[-74.0390505,40.747853],[-74.0390536,40.7478476],[-74.0393037,40.7473974],[-74.0396035,40.7467469],[-74.0400054,40.7462176],[-74.0401188,40.7460974],[-74.0406026,40.7455845],[-74.0407165,40.7454637],[-74.0410667,40.7451073],[-74.0411236,40.7450306],[-74.0411237,40.7450305],[-74.0411238,40.7450304],[-74.0413509,40.7447248],[-74.0413978,40.7446616],[-74.0414879,40.7445404],[-74.0415047,40.7445178],[-74.0415874,40.7443492],[-74.0416191,40.7442846],[-74.0415668,40.7441321],[-74.0415212,40.7439988],[-74.0417081,40.7438208],[-74.0419677,40.74343],[-74.0420973,40.7432348],[-74.0422082,40.7428035],[-74.0422361,40.7421389],[-74.0422392,40.7420662],[-74.0421531,40.7416043],[-74.042162,40.7414625],[-74.042162,40.7414624],[-74.0421688,40.7413541],[-74.0422563,40.7412267],[-74.0422649,40.7412141],[-74.042419,40.7411182],[-74.0425675,40.7410257],[-74.0426882,40.7409506],[-74.0428646,40.7408408],[-74.0428839,40.7408287],[-74.0429789,40.7407696],[-74.0432142,40.7406231],[-74.0432948,40.7405497],[-74.0433071,40.7405385],[-74.0433072,40.7405385],[-74.0433438,40.7405051],[-74.0435156,40.7403489],[-74.0435366,40.7403053],[-74.0436758,40.7400161],[-74.0437825,40.7398571],[-74.0437846,40.7394674],[-74.0437845,40.7394653],[-74.0438787,40.7391557],[-74.0439223,40.7390123],[-74.0439026,40.7389691],[-74.0438809,40.7389264],[-74.0438573,40.7388844],[-74.0438318,40.7388429],[-74.0438044,40.7388022],[-74.0437752,40.7387622],[-74.0437494,40.7387293],[-74.0437223,40.738697],[-74.043694,40.7386654],[-74.0436645,40.7386343],[-74.0436363,40.7386063],[-74.0436072,40.7385789],[-74.0436041,40.7385761],[-74.0435832,40.7385574],[-74.0435617,40.738539],[-74.0435199,40.7385049],[-74.0436131,40.7382751],[-74.0436401,40.7382086],[-74.0437652,40.7379],[-74.0437919,40.7378343],[-74.0438292,40.7377422],[-74.0439112,40.73754],[-74.0436925,40.7373293],[-74.0435063,40.73715],[-74.0434167,40.7370638],[-74.0429333,40.7365984],[-74.0428366,40.7365052],[-74.0428323,40.7364513],[-74.0428135,40.7362146],[-74.0428109,40.7361828],[-74.0428109,40.7361827],[-74.0427965,40.7360011],[-74.0427936,40.7359649],[-74.042792,40.7359449],[-74.0426372,40.7359686],[-74.0418419,40.7360904],[-74.0418192,40.7360939],[-74.0417307,40.7361074],[-74.0416423,40.736121],[-74.0415538,40.7361345],[-74.0414654,40.736148],[-74.0413769,40.7361616],[-74.0412885,40.7361751],[-74.0412487,40.7361812],[-74.0412,40.7361887],[-74.0411116,40.7362022],[-74.0410231,40.7362158],[-74.0409568,40.7362259],[-74.0407366,40.7362596],[-74.0404854,40.7362981],[-74.0404754,40.7362996],[-74.0402445,40.736335],[-74.0402201,40.7363387],[-74.0401316,40.7363523],[-74.0400432,40.7363658],[-74.0399547,40.7363793],[-74.0398663,40.7363929],[-74.0397778,40.7364064],[-74.0396894,40.73642],[-74.039624,40.73643],[-74.039343,40.7363711],[-74.0391613,40.736333],[-74.0391434,40.7363293],[-74.0388834,40.7363045],[-74.0387814,40.7362947],[-74.0387079,40.7362683],[-74.0385949,40.7362278],[-74.0371836,40.7358076],[-74.0344623,40.7349972],[-74.0335746,40.7347328],[-74.030091,40.7336953],[-74.0302231,40.7337061],[-74.0305086,40.7337293],[-74.0305399,40.7337322],[-74.0305657,40.7337347],[-74.0306239,40.7334503],[-74.0306205,40.7333576],[-74.030657,40.733267],[-74.0307172,40.7328974],[-74.0307975,40.7322253],[-74.0308129,40.7320144],[-74.0308558,40.7315675],[-74.0308678,40.7315653],[-74.0309394,40.7315656],[-74.0309478,40.7314915],[-74.0309673,40.731276],[-74.0305518,40.7312486],[-74.0300371,40.7312004],[-74.0296517,40.7311602],[-74.0291251,40.7311078],[-74.0291111,40.7311066],[-74.0288498,40.7310889],[-74.0285159,40.7310524],[-74.0282561,40.7310282],[-74.0280923,40.731018],[-74.0280047,40.7310125],[-74.0280002,40.7310117],[-74.0279972,40.7310105],[-74.0279957,40.7310094],[-74.0279948,40.7310011],[-74.0279964,40.7309903],[-74.0280678,40.7305897],[-74.0281216,40.7303528],[-74.0281273,40.7303275],[-74.0281236,40.7302878],[-74.0281197,40.730276],[-74.028108,40.7302503],[-74.0281072,40.730249],[-74.0280942,40.7302275],[-74.0280784,40.7302124],[-74.0280587,40.7301941],[-74.0280231,40.7301679],[-74.0279836,40.7301182],[-74.0279698,40.7301098],[-74.0279182,40.7300952],[-74.0278854,40.730086],[-74.027734,40.7299886],[-74.0276786,40.729952],[-74.0276518,40.7299447],[-74.0276071,40.729943],[-74.0275833,40.7299354],[-74.0271298,40.7296714],[-74.0271298,40.7296688],[-74.0271348,40.7296631],[-74.0271438,40.7296575],[-74.0271682,40.7296463],[-74.0271757,40.729638],[-74.0271798,40.7296304],[-74.0271808,40.7296214],[-74.027174,40.7296009],[-74.0269601,40.7294762],[-74.0269517,40.7294746],[-74.0269432,40.7294744],[-74.0269348,40.7294768],[-74.026921,40.7294931],[-74.0268897,40.7295277],[-74.0268837,40.7295303],[-74.0268778,40.7295293],[-74.026853,40.7295149],[-74.026851,40.72951],[-74.0268525,40.7295054],[-74.0268869,40.7294713],[-74.0268953,40.7294637],[-74.0269036,40.7294555],[-74.0269131,40.7294529],[-74.026925,40.7294507],[-74.0274194,40.7294919],[-74.0274654,40.7295183],[-74.0278828,40.7297577],[-74.0291266,40.7304677],[-74.02922,40.7304772],[-74.0298613,40.7305327],[-74.0298897,40.7305351],[-74.0301342,40.7305528],[-74.0304485,40.7305743],[-74.0304621,40.7305753],[-74.0306331,40.7305798],[-74.0307523,40.7305969],[-74.0309984,40.7306644],[-74.0312543,40.7307547],[-74.0313478,40.7306668],[-74.0313504,40.7306644],[-74.0307086,40.730301],[-74.029758,40.7297593],[-74.0297736,40.7297392],[-74.0298001,40.729705],[-74.0299273,40.7297154],[-74.0304777,40.7297691],[-74.0304895,40.7297858],[-74.0305052,40.7298092],[-74.0305604,40.7298919],[-74.0308594,40.7300679],[-74.0311406,40.7302294],[-74.0311547,40.7301019],[-74.0311576,40.7300751],[-74.03119,40.7297328],[-74.03119,40.7297327],[-74.0311899,40.7297326],[-74.0312316,40.7294975],[-74.0312318,40.7294734],[-74.0309533,40.7294428],[-74.0274611,40.7291344],[-74.0273408,40.7290726],[-74.0273526,40.729029],[-74.0309658,40.729341],[-74.0309673,40.7293294],[-74.0310057,40.7289976],[-74.0300754,40.7289082],[-74.0290755,40.728827],[-74.0265481,40.728601],[-74.0266038,40.72819],[-74.0266067,40.7281858],[-74.0279398,40.728298],[-74.0310337,40.7285749],[-74.0310861,40.728036],[-74.0309098,40.7280226],[-74.0303348,40.7279769],[-74.0300043,40.7279486],[-74.0287323,40.7278388],[-74.0273742,40.7277159],[-74.0273493,40.727701],[-74.0273756,40.7275151],[-74.0303164,40.7277791],[-74.0303423,40.7277814],[-74.0304033,40.7272622],[-74.0304097,40.7271036],[-74.0304049,40.7270362],[-74.030364,40.726925],[-74.0303436,40.7268694],[-74.0302816,40.7267899],[-74.0301884,40.7267062],[-74.0301158,40.7266504],[-74.030059,40.7265749],[-74.0300212,40.7264756],[-74.0300214,40.7264519],[-74.0300542,40.7263743],[-74.0301111,40.7262989],[-74.03016,40.7262357],[-74.0301926,40.7262072],[-74.0302488,40.7261581],[-74.0302869,40.7261347],[-74.0303318,40.726127],[-74.0304215,40.7261195],[-74.0304994,40.7261256],[-74.0306658,40.7261693],[-74.030835,40.7261884],[-74.0309639,40.7262032],[-74.0312755,40.7262259],[-74.0313347,40.7262251],[-74.0314046,40.7262173],[-74.0315938,40.7261636],[-74.0318111,40.7261279],[-74.0319672,40.7260948],[-74.0320157,40.7260848],[-74.0320531,40.7260762],[-74.0320738,40.7260763],[-74.0322092,40.7260927],[-74.0324452,40.7261005],[-74.0324547,40.7260622],[-74.0330824,40.7261176],[-74.0344516,40.7262383],[-74.034525,40.7257706],[-74.0332467,40.7256743],[-74.0320719,40.725567],[-74.0320637,40.7255585],[-74.0321104,40.7252352],[-74.0337822,40.7253857],[-74.0337646,40.7255316],[-74.0345592,40.7255845],[-74.0346065,40.7253275],[-74.0346137,40.7252858],[-74.0338168,40.7252093],[-74.0338394,40.7250156],[-74.0338405,40.7250065],[-74.0297802,40.724657],[-74.0297136,40.7246314],[-74.0296526,40.7246185],[-74.0294971,40.7246073],[-74.0294721,40.7245945],[-74.0294473,40.7245669],[-74.0294392,40.7245373],[-74.0294394,40.7245055],[-74.0295328,40.7238759],[-74.0295357,40.7238537],[-74.0295553,40.7238337],[-74.0296055,40.7238117],[-74.0296416,40.7238098],[-74.0297139,40.7238037],[-74.0297945,40.7238061],[-74.0317163,40.723963],[-74.0337454,40.7241396],[-74.0338116,40.7241271],[-74.0338334,40.7241059],[-74.0338835,40.7240225],[-74.0339056,40.7238442],[-74.03391,40.7238091],[-74.0338689,40.7238089],[-74.0338377,40.7238088],[-74.0338421,40.7237831],[-74.0338645,40.7236505],[-74.0338928,40.7234835],[-74.0339678,40.7234859],[-74.0340165,40.7231427],[-74.0340321,40.7230326],[-74.0340322,40.7230178],[-74.0340323,40.7230009],[-74.0340268,40.7229946],[-74.0339992,40.7229606],[-74.0339828,40.7229225],[-74.0339806,40.7228902],[-74.0339803,40.7228866],[-74.0339805,40.7228654],[-74.033989,40.7228295],[-74.0340005,40.7227852],[-74.0340302,40.7227446],[-74.0340732,40.7227094],[-74.0341458,40.7226674],[-74.0341702,40.7225341],[-74.0341676,40.7225309],[-74.0341829,40.7224318],[-74.0341927,40.7224111],[-74.0341978,40.7223832],[-74.0342208,40.7222155],[-74.03423,40.7221487],[-74.03423,40.7221423],[-74.0342245,40.722136],[-74.0342215,40.7221359],[-74.0342162,40.7221359],[-74.0341051,40.7221249],[-74.0332552,40.7220633],[-74.0324027,40.7219827],[-74.0315472,40.7219068],[-74.0314224,40.7218958],[-74.0314141,40.7218904],[-74.0314376,40.7217061],[-74.0314439,40.7216653],[-74.0314857,40.7213918],[-74.0315004,40.7213029],[-74.0315219,40.7211726],[-74.0313539,40.7211635],[-74.0313622,40.7210806],[-74.0313629,40.7210736],[-74.0313589,40.7210387],[-74.0313482,40.720988],[-74.0313267,40.7208748],[-74.0313292,40.7207226],[-74.0313299,40.720629],[-74.0313981,40.7204121],[-74.0314755,40.7202639],[-74.0314756,40.7202575],[-74.0314812,40.7202512],[-74.0314854,40.7202491],[-74.0314923,40.7202491],[-74.0314979,40.7202491],[-74.0315006,40.7202502],[-74.0315215,40.7202524],[-74.0316297,40.7202729],[-74.031645,40.720274],[-74.0316463,40.7202741],[-74.0316505,40.7202741],[-74.0316547,40.720273],[-74.0316631,40.7202646],[-74.0316645,40.7202572],[-74.0316645,40.7202565],[-74.0316645,40.720254],[-74.0316647,40.7202297],[-74.0316722,40.7202049],[-74.0316761,40.7201917],[-74.0316817,40.7201854],[-74.0317026,40.7201802],[-74.0317415,40.7201767],[-74.0322567,40.7202179],[-74.0323747,40.7202257],[-74.0324028,40.7202119],[-74.0324354,40.7201914],[-74.0325385,40.7201421],[-74.0325511,40.7201358],[-74.0325514,40.7201344],[-74.0325522,40.7201292],[-74.0325456,40.7201242],[-74.0324212,40.720002],[-74.0323635,40.7199453],[-74.032231,40.7198044],[-74.0321594,40.7197283],[-74.0321096,40.7196858],[-74.0320785,40.7196745],[-74.0320625,40.7196687],[-74.030055,40.7194534],[-74.0292832,40.7193641],[-74.0292694,40.7193556],[-74.0292611,40.7193397],[-74.0292607,40.7193387],[-74.029258,40.719333],[-74.0293487,40.7189354],[-74.0293515,40.718931],[-74.0293599,40.7189252],[-74.0293669,40.7189228],[-74.0293755,40.7189205],[-74.0309772,40.7191049],[-74.0323069,40.719257],[-74.0324869,40.7192794],[-74.0325336,40.7190573],[-74.0325281,40.7190551],[-74.0324881,40.7190174],[-74.0324607,40.7189486],[-74.0324594,40.718937],[-74.0324688,40.7188863],[-74.0324731,40.7188752],[-74.0325116,40.7188238],[-74.0325277,40.7188123],[-74.0325507,40.7187991],[-74.0325897,40.7187821],[-74.0328249,40.717531],[-74.0328172,40.7175246],[-74.0327758,40.7174799],[-74.0327595,40.7174357],[-74.0327504,40.717386],[-74.0299302,40.7170661],[-74.0299333,40.7170505],[-74.0299991,40.7167127],[-74.0318251,40.7169243],[-74.0318979,40.7169024],[-74.032075,40.7169187],[-74.0321688,40.7163898],[-74.0321677,40.7163897],[-74.0312887,40.7162922],[-74.0313836,40.7158035],[-74.0314077,40.7157699],[-74.0314203,40.7157573],[-74.0314844,40.715729],[-74.0314997,40.7157238],[-74.0315261,40.7157207],[-74.031565,40.7157199],[-74.0315997,40.7157232],[-74.0316205,40.7157296],[-74.0316773,40.7157547],[-74.0317132,40.7157907],[-74.0317257,40.7158176],[-74.0317377,40.7158564],[-74.0317145,40.7160032],[-74.0316941,40.7161427],[-74.0316995,40.7161638],[-74.0317244,40.7161703],[-74.0325716,40.7162504],[-74.0326048,40.7162452],[-74.0326242,40.7162284],[-74.0326609,40.7161582],[-74.0327574,40.7157199],[-74.032794,40.7155141],[-74.0327988,40.7155066],[-74.0328116,40.7154903],[-74.0328318,40.7154799],[-74.0328519,40.7154714],[-74.0328903,40.715466],[-74.0329269,40.7154606],[-74.0329388,40.7154584],[-74.0329834,40.7152515],[-74.0330448,40.7149018],[-74.0330226,40.7148912],[-74.0330658,40.7146683],[-74.0331019,40.7146727],[-74.0331712,40.714303],[-74.0331212,40.7142986],[-74.03315,40.7141549],[-74.0330167,40.7141396],[-74.0329753,40.7141077],[-74.0329563,40.7140463],[-74.0329644,40.7140033],[-74.0329741,40.713952],[-74.0329804,40.7139187],[-74.0329851,40.7138933],[-74.032997,40.7138305],[-74.0316488,40.7136655],[-74.0316634,40.7135647],[-74.0330197,40.7137289],[-74.0330707,40.71357],[-74.0330996,40.7134169],[-74.0330691,40.7134104],[-74.0331039,40.7132055],[-74.0331224,40.7132056],[-74.0331511,40.7132057],[-74.033197,40.7129902],[-74.0332012,40.7127904],[-74.0332195,40.7127145],[-74.033247,40.7126004],[-74.0332498,40.7125919],[-74.0332554,40.7125919],[-74.0332748,40.7125983],[-74.0333803,40.712603],[-74.0334083,40.7125714],[-74.0334281,40.7125271],[-74.0334364,40.7124939],[-74.0334824,40.7123106],[-74.0334772,40.7122641],[-74.0334746,40.7122387],[-74.0334691,40.7122281],[-74.0334664,40.7122196],[-74.0334442,40.7122069],[-74.033436,40.7121899],[-74.0334389,40.7121751],[-74.0334391,40.7121498],[-74.0335026,40.7120386],[-74.0336099,40.711902],[-74.033654,40.7118142],[-74.0337328,40.7116768],[-74.033835,40.7116705],[-74.0339542,40.7116771],[-74.0340869,40.7116904],[-74.0342366,40.7117249],[-74.0343171,40.7117379],[-74.0344394,40.7117299],[-74.0344908,40.7117407],[-74.0346961,40.7117732],[-74.0347657,40.7117823],[-74.0347961,40.7117863],[-74.0348238,40.7117922],[-74.0348321,40.7117933],[-74.0352094,40.7116759],[-74.0352318,40.7116475],[-74.0352459,40.7116285],[-74.0352712,40.7115821],[-74.0352797,40.7115568],[-74.0352827,40.7115251],[-74.0352913,40.7114934],[-74.0353137,40.7114575],[-74.0353388,40.7114428],[-74.0353556,40.7114323],[-74.0353751,40.711424],[-74.0354252,40.7114115],[-74.0354752,40.7114074],[-74.0355252,40.7114055],[-74.0356335,40.7114208],[-74.0358275,40.7114839],[-74.0361076,40.7115569],[-74.0365406,40.71162],[-74.0369571,40.7116571],[-74.0370854,40.7116621],[-74.0371127,40.7116593],[-74.0372121,40.7116483],[-74.0373074,40.7116283],[-74.0373804,40.7116041],[-74.0374068,40.711588],[-74.0375024,40.7115321],[-74.0376871,40.7113706],[-74.037722,40.7113184],[-74.0377655,40.7112745],[-74.0379211,40.7111685],[-74.0379424,40.7111562],[-74.0380066,40.7111221],[-74.0380751,40.7111055],[-74.0383875,40.7110447],[-74.0384367,40.7110351],[-74.0386369,40.7110137],[-74.0386373,40.7110137],[-74.0386683,40.7110161],[-74.0393711,40.7110714],[-74.0395005,40.7110816],[-74.0395028,40.7110568],[-74.0395155,40.7109168],[-74.0395137,40.7103803],[-74.0393041,40.7103551],[-74.0393041,40.7103477],[-74.0393154,40.7103224],[-74.0393127,40.7103115],[-74.0392963,40.7102948],[-74.0392837,40.7102812],[-74.0392827,40.7102801],[-74.0392554,40.7102695],[-74.0392334,40.7102674],[-74.0391895,40.7102672],[-74.03911,40.7102669],[-74.0390168,40.7102623],[-74.0388716,40.7102367],[-74.038732,40.7101986],[-74.0386451,40.7101584],[-74.0386226,40.7101481],[-74.0386008,40.7101292],[-74.03859,40.7101041],[-74.0385901,40.7100957],[-74.0386015,40.7100353],[-74.0386191,40.7098538],[-74.0386128,40.7097817],[-74.0385998,40.7097493],[-74.0385723,40.7096918],[-74.0385405,40.7096264],[-74.0385398,40.7096249],[-74.0385235,40.709606],[-74.0385099,40.7095935],[-74.038499,40.7095809],[-74.0384771,40.7095725],[-74.0384579,40.7095703],[-74.0384497,40.7095703],[-74.0384277,40.7095702],[-74.0384003,40.7095701],[-74.0383591,40.7095762],[-74.0383262,40.7095823],[-74.0382686,40.7095842],[-74.0382274,40.709584],[-74.0381645,40.709567],[-74.0381585,40.709564],[-74.0381235,40.709546],[-74.0380351,40.7094409],[-74.0380337,40.7094392],[-74.0380065,40.7094036],[-74.0379847,40.7093847],[-74.0379491,40.7093804],[-74.0371859,40.7092824],[-74.0364884,40.7092055],[-74.0358485,40.7091309],[-74.0353839,40.70908],[-74.035319,40.7090796],[-74.0352742,40.7090858],[-74.0351396,40.7091103],[-74.0349665,40.7091576],[-74.0349116,40.7091679],[-74.034854,40.7091697],[-74.0347292,40.7091682],[-74.0347161,40.7091666],[-74.0347046,40.7091576],[-74.0346467,40.7090627],[-74.0345932,40.7090069],[-74.0345714,40.7089901],[-74.0344975,40.7089627],[-74.0344154,40.7089352],[-74.0344008,40.7089248],[-74.0343437,40.70887],[-74.0343083,40.7088095],[-74.0343046,40.7088089],[-74.0342943,40.708797],[-74.0342821,40.7087688],[-74.0342783,40.7087343],[-74.0342815,40.7086644],[-74.0342877,40.7085569],[-74.0343186,40.7084506],[-74.0343283,40.708437],[-74.0343636,40.7084285],[-74.0344813,40.7077717],[-74.0345009,40.7076791],[-74.034084,40.707628],[-74.0340813,40.7076272],[-74.0340882,40.7075747],[-74.0341426,40.7075378],[-74.0341506,40.707533],[-74.0341583,40.7075253],[-74.0341635,40.7075156],[-74.0341686,40.7075009],[-74.0341687,40.7074886],[-74.034165,40.7074764],[-74.034152,40.7074557],[-74.0341378,40.7074428],[-74.0341141,40.7074292],[-74.034045,40.7073999],[-74.0340374,40.7073941],[-74.0340274,40.7073838],[-74.0340249,40.707376],[-74.0340245,40.7073631],[-74.0340287,40.7073506],[-74.0340344,40.7073442],[-74.0340411,40.7073423],[-74.0341194,40.707329],[-74.0341809,40.7073142],[-74.0341928,40.7073101],[-74.0342022,40.7073031],[-74.0342039,40.7072966],[-74.0342096,40.7072694],[-74.0342126,40.7072423],[-74.0342086,40.7072281],[-74.0341985,40.7072203],[-74.0341715,40.7072048],[-74.0340657,40.7071629],[-74.0340589,40.7071545],[-74.0340576,40.7071409],[-74.0340618,40.7071253],[-74.034069,40.7071165],[-74.034077,40.7071118],[-74.0341811,40.7070968],[-74.034218,40.7070878],[-74.034235,40.7070815],[-74.0342478,40.7070706],[-74.0342581,40.7070359],[-74.03426,40.707012],[-74.0342568,40.7069962],[-74.0342432,40.7069825],[-74.0341174,40.7069236],[-74.0341126,40.7069207],[-74.0341093,40.706911],[-74.0341122,40.7068891],[-74.0341177,40.706886],[-74.0341616,40.7068841],[-74.0342055,40.7068812],[-74.0342288,40.7068793],[-74.0342356,40.7068787],[-74.0342381,40.7068749],[-74.0342415,40.7068671],[-74.0342454,40.7068636],[-74.0342653,40.7068595],[-74.0342806,40.7068525],[-74.0342866,40.7068409],[-74.0342926,40.7068255],[-74.0342966,40.7067949],[-74.0342953,40.7067793],[-74.0342804,40.7067543],[-74.0342653,40.7067311],[-74.0342546,40.7067248],[-74.0342266,40.7067116],[-74.0341947,40.7067067],[-74.0341587,40.7067015],[-74.0341556,40.7066953],[-74.0341585,40.7066547],[-74.0341619,40.7066515],[-74.0341695,40.7066516],[-74.0346925,40.706696],[-74.034873,40.7057505],[-74.0350152,40.7057639],[-74.0350593,40.705768],[-74.0351005,40.705764],[-74.035117,40.7057578],[-74.0351269,40.7057548],[-74.0351582,40.7057454],[-74.0351857,40.7057372],[-74.0352406,40.7057311],[-74.0353146,40.7057377],[-74.0354571,40.7057571],[-74.0360532,40.7058189],[-74.0371479,40.7059517],[-74.0380962,40.7060473],[-74.0381551,40.7060549],[-74.0382676,40.7060491],[-74.0383115,40.7060492],[-74.0385675,40.7060902],[-74.0386971,40.7060314],[-74.0389626,40.7059235],[-74.0393322,40.7057616],[-74.0396875,40.7055997],[-74.0401433,40.7053865],[-74.0405955,40.7051677],[-74.0410622,40.7049327],[-74.0413356,40.7047845],[-74.041325,40.7047453],[-74.0413321,40.7047088],[-74.0413514,40.7046901],[-74.0421847,40.7042021],[-74.0432223,40.7035629],[-74.0439321,40.7031061],[-74.043977,40.7030772],[-74.0441774,40.7029337],[-74.0446664,40.70259],[-74.0448654,40.7024487],[-74.0449498,40.7023894],[-74.0452272,40.7021925],[-74.0457828,40.7017554],[-74.0462344,40.7013737],[-74.0464158,40.7012204],[-74.0467454,40.7009303],[-74.0469552,40.7007456],[-74.0475596,40.7001588],[-74.0479794,40.6997353],[-74.0484639,40.699254],[-74.0488161,40.6988766],[-74.0491986,40.6984867],[-74.0497277,40.6979033],[-74.0503967,40.6971087],[-74.0508128,40.6965958],[-74.0511214,40.6961764],[-74.0512044,40.6960641],[-74.0512293,40.6960266],[-74.0512321,40.6960203],[-74.0512404,40.6960099],[-74.0512624,40.6959975],[-74.0512953,40.6959955],[-74.051331,40.6959978],[-74.0513779,40.6960155],[-74.0516207,40.6957112],[-74.0521,40.6950754],[-74.0526827,40.6942572],[-74.0531315,40.6936019],[-74.0534826,40.693055],[-74.0538646,40.6924499],[-74.0541789,40.6919226],[-74.0541789,40.6919093],[-74.0543048,40.6917068],[-74.0543049,40.6916994],[-74.0542894,40.6916905],[-74.0542466,40.691677],[-74.054237,40.6916636],[-74.0542371,40.6916488],[-74.0544148,40.6913183],[-74.0545043,40.6911712],[-74.0547635,40.6907172],[-74.0548181,40.6906574],[-74.0548511,40.69064],[-74.0548774,40.6906376],[-74.0549398,40.6906404],[-74.0559113,40.6910587],[-74.056957,40.6915356],[-74.0578138,40.6919652],[-74.057479,40.6928101],[-74.0583216,40.6932871],[-74.0583806,40.6933023],[-74.0584464,40.6932901],[-74.0584892,40.6932652],[-74.0585099,40.6932453],[-74.0587462,40.692515],[-74.0587562,40.6925013],[-74.058776,40.6924851],[-74.0587908,40.6924776],[-74.0588056,40.6924777],[-74.0588155,40.6924777],[-74.0588384,40.6924841],[-74.058952,40.6925633],[-74.0589846,40.6926071],[-74.0589959,40.6926372],[-74.0589957,40.6926597],[-74.0589655,40.6927658],[-74.0586878,40.6934135],[-74.0586859,40.6934522],[-74.0587004,40.6934823],[-74.0587217,40.6934974],[-74.0587348,40.6935087],[-74.0589768,40.6936633],[-74.0593867,40.6938811],[-74.0594212,40.6938863],[-74.0594622,40.6938864],[-74.0594836,40.6938815],[-74.0594952,40.6938666],[-74.0597837,40.6930789],[-74.0597969,40.6930652],[-74.0598068,40.6930565],[-74.0598243,40.6930518],[-74.0598496,40.6930517],[-74.0598693,40.693053],[-74.0599936,40.693121],[-74.0600132,40.6931373],[-74.0600212,40.6931698],[-74.0596996,40.6940138],[-74.0596986,40.6940348],[-74.0597001,40.6940586],[-74.0597365,40.6940958],[-74.0602372,40.6944088],[-74.0602848,40.6944177],[-74.0602999,40.6944163],[-74.0603242,40.6944141],[-74.0603637,40.6944067],[-74.0603884,40.6943906],[-74.0603957,40.6943807],[-74.060415,40.6943544],[-74.0605026,40.6941335],[-74.0606732,40.6936819],[-74.0607046,40.6936392],[-74.0607156,40.6936281],[-74.0607449,40.6936143],[-74.060796,40.693609],[-74.0608653,40.693612],[-74.0609198,40.6936344],[-74.0610724,40.6937104],[-74.0611333,40.6937459],[-74.0613693,40.6938854],[-74.0613695,40.6938855],[-74.0613697,40.6938856],[-74.0613771,40.6938931],[-74.0613798,40.6939081],[-74.061379,40.6939181],[-74.061336,40.6940204],[-74.0613142,40.6940829],[-74.0612773,40.6942027],[-74.0610066,40.6949104],[-74.061008,40.6949467],[-74.0610112,40.6949654],[-74.061021,40.6949767],[-74.061034,40.6949993],[-74.0610355,40.6950105],[-74.0610304,40.695033],[-74.0625014,40.6958752],[-74.0629631,40.6961333],[-74.0638325,40.696624],[-74.063836,40.6966246],[-74.0638394,40.6966251],[-74.0638453,40.6966229],[-74.0638584,40.6966158],[-74.0638631,40.6966147],[-74.0638703,40.6966164],[-74.0639279,40.6966454],[-74.064095,40.6967388],[-74.0643395,40.6968773],[-74.06444,40.696933],[-74.0645283,40.6969841],[-74.0647308,40.697091],[-74.0648195,40.6970748],[-74.0648849,40.6970639],[-74.064959,40.6970598],[-74.0650098,40.69706],[-74.0650679,40.6970624],[-74.06511,40.6970692],[-74.0651505,40.6970882],[-74.0651707,40.6971037],[-74.0651974,40.6971248],[-74.0652248,40.6971581],[-74.0652836,40.6972655],[-74.0652865,40.6972777],[-74.0652835,40.697292],[-74.0652732,40.6973041],[-74.0652279,40.6973482],[-74.0652162,40.6973647],[-74.0652023,40.6973845],[-74.0652096,40.6974829],[-74.065218,40.6975404],[-74.0652239,40.6975896],[-74.0652249,40.6975979],[-74.0652255,40.6976084],[-74.0652275,40.6976399],[-74.0652403,40.6976775],[-74.0652749,40.6977174],[-74.0653153,40.6977563],[-74.0654953,40.6978708],[-74.0656255,40.6979553],[-74.0657036,40.6979976],[-74.0657745,40.6980343],[-74.0658339,40.6980588],[-74.0658831,40.6980778],[-74.065944,40.6981012],[-74.0660252,40.6981214],[-74.066106,40.6981352],[-74.0661167,40.6981067],[-74.0661259,40.6980312],[-74.0662075,40.6978326],[-74.0665635,40.6968315],[-74.0665993,40.696803],[-74.0666344,40.6967545],[-74.0668273,40.6965739],[-74.067029,40.6963691],[-74.0670551,40.6963604],[-74.0670784,40.6963649],[-74.0671419,40.696402],[-74.0679424,40.6968574],[-74.0679446,40.6968577],[-74.0680775,40.6968699],[-74.0681455,40.696881],[-74.0682095,40.6968728],[-74.0682566,40.6968658],[-74.0683229,40.6968229],[-74.0685599,40.6966277],[-74.0685662,40.6966253],[-74.0687966,40.696409],[-74.0691678,40.6961307],[-74.0692965,40.6960007],[-74.0694998,40.6957946],[-74.0695768,40.6957316],[-74.0695989,40.6957032],[-74.0696153,40.6956773],[-74.0696236,40.6956612],[-74.0698381,40.6953458],[-74.0698915,40.695278],[-74.0699414,40.6952348],[-74.070042,40.6951609],[-74.0700878,40.6951325],[-74.0701107,40.6951091],[-74.0702362,40.6948295],[-74.0703588,40.6946292],[-74.0703802,40.694602],[-74.0704767,40.6944971],[-74.0704767,40.6944965],[-74.0705463,40.6944613],[-74.0705725,40.6944466],[-74.0705815,40.6944355],[-74.0705889,40.6944219],[-74.0705948,40.6943897],[-74.07059,40.6943276],[-74.07058,40.6941616],[-74.0705619,40.6940967],[-74.0705533,40.694078],[-74.0705363,40.6940329],[-74.0704757,40.6939646],[-74.0704471,40.6939249],[-74.0704023,40.6938742],[-74.0703937,40.6938626],[-74.0703916,40.6938555],[-74.0703853,40.6938351],[-74.0703781,40.6938241],[-74.0703616,40.6938153],[-74.0703291,40.6938069],[-74.0702967,40.6937986],[-74.0702686,40.6937957],[-74.0702513,40.6937945],[-74.070152,40.6938057],[-74.070139,40.6938068],[-74.0701324,40.6938122],[-74.0701288,40.6938177],[-74.0701222,40.6938287],[-74.0701099,40.6938385],[-74.0700853,40.6938467],[-74.0699673,40.6938742],[-74.0698203,40.6939116],[-74.0697595,40.6939377],[-74.0697161,40.6939661],[-74.0696725,40.6940011],[-74.0696195,40.6940493],[-74.0696028,40.6940756],[-74.0695932,40.6940953],[-74.0695938,40.6941151],[-74.0696022,40.6941569],[-74.0696186,40.6941921],[-74.0696272,40.6942086],[-74.069802,40.6943386],[-74.0698129,40.6943645],[-74.069784,40.6943971],[-74.0697623,40.6944135],[-74.0697275,40.6944299],[-74.0697188,40.6944309],[-74.0697058,40.6944342],[-74.0696871,40.6944341],[-74.0696798,40.6944341],[-74.0696669,40.6944318],[-74.0696525,40.6944263],[-74.0696452,40.6944262],[-74.0696395,40.6944229],[-74.0696265,40.6944229],[-74.0696178,40.6944228],[-74.0696092,40.6944239],[-74.0696019,40.6944261],[-74.0695976,40.6944272],[-74.0695889,40.6944326],[-74.0695846,40.6944359],[-74.0695845,40.6944403],[-74.0695845,40.6944436],[-74.0695831,40.6944436],[-74.0695845,40.6944502],[-74.0695931,40.694459],[-74.0696017,40.6944623],[-74.0696104,40.6944657],[-74.0696334,40.6944702],[-74.0696493,40.6944735],[-74.0696666,40.6944769],[-74.0696896,40.6944923],[-74.0696967,40.6945033],[-74.0696962,40.6945177],[-74.0696879,40.6945319],[-74.0696618,40.6945417],[-74.0695888,40.6945612],[-74.0695585,40.6945644],[-74.0695412,40.694561],[-74.0695267,40.694562],[-74.0695137,40.6945719],[-74.0695078,40.6945883],[-74.0695377,40.6946544],[-74.0695375,40.6946808],[-74.069536,40.6946906],[-74.0694217,40.6948418],[-74.0693504,40.694924],[-74.0692898,40.6950325],[-74.0692681,40.6950478],[-74.0691929,40.6950596],[-74.0691654,40.6950683],[-74.0691423,40.6950858],[-74.0690855,40.6951592],[-74.0690681,40.6951734],[-74.0690522,40.6951778],[-74.0690334,40.6951799],[-74.0689035,40.6951695],[-74.0688847,40.6951727],[-74.0688544,40.6951759],[-74.0687536,40.695219],[-74.0686778,40.6952533],[-74.0686026,40.6952728],[-74.0685189,40.6952747],[-74.0684582,40.6952766],[-74.0684264,40.6952831],[-74.0683483,40.6953048],[-74.0682819,40.6953089],[-74.068256,40.6953022],[-74.068217,40.6952999],[-74.0681794,40.6953042],[-74.0681201,40.6953281],[-74.0680854,40.6953346],[-74.0680507,40.695341],[-74.0680247,40.6953431],[-74.0679908,40.6953408],[-74.0679303,40.6953175],[-74.0678957,40.6953152],[-74.0678784,40.6953184],[-74.0678508,40.6953326],[-74.0678312,40.6953501],[-74.0678188,40.6953792],[-74.0678137,40.6953857],[-74.0678086,40.6953896],[-74.0677999,40.6953912],[-74.0677934,40.6953912],[-74.0677898,40.6953911],[-74.0677826,40.6953873],[-74.0677776,40.6953774],[-74.067779,40.6952785],[-74.0677769,40.6952664],[-74.0677719,40.6952587],[-74.0677353,40.6952344],[-74.0676993,40.6952172],[-74.0676885,40.6952172],[-74.0676798,40.6952221],[-74.067671,40.6952319],[-74.0676481,40.6953197],[-74.0676366,40.6953417],[-74.0675733,40.6953909],[-74.0675224,40.6954423],[-74.0674873,40.6955114],[-74.0674771,40.6955323],[-74.067464,40.6955487],[-74.0674524,40.6955552],[-74.067438,40.6955574],[-74.0674221,40.695554],[-74.0674164,40.6955496],[-74.0674005,40.695543],[-74.0673876,40.6955341],[-74.0673775,40.6955264],[-74.0673661,40.6955165],[-74.0673574,40.6955098],[-74.0673398,40.6955032],[-74.0673228,40.6955031],[-74.0673041,40.695503],[-74.0672824,40.6955041],[-74.0672651,40.695504],[-74.0672525,40.6955023],[-74.0672474,40.695499],[-74.0671787,40.6954608],[-74.0670529,40.6953889],[-74.0668687,40.6952948],[-74.0667465,40.695223],[-74.0666516,40.6951688],[-74.0664898,40.6950665],[-74.06641,40.6950417],[-74.0659118,40.6947139],[-74.0658819,40.6946544],[-74.0658821,40.6946259],[-74.0658967,40.6945973],[-74.0663117,40.6942671],[-74.0663551,40.6942431],[-74.0665141,40.6942111],[-74.0666327,40.6941738],[-74.0667515,40.6941171],[-74.0668065,40.694091],[-74.0669007,40.6940298],[-74.0669298,40.6940079],[-74.0669734,40.6939575],[-74.0670202,40.6938632],[-74.0670962,40.6937207],[-74.0672789,40.6935873],[-74.0673198,40.6935355],[-74.0673563,40.6934535],[-74.0673854,40.6934185],[-74.0674089,40.6933614],[-74.0675135,40.6932476],[-74.0676182,40.6931381],[-74.0677173,40.6929934],[-74.0680891,40.6926388],[-74.0685748,40.6920913],[-74.0689295,40.6916971],[-74.0690514,40.6914204],[-74.0692219,40.691129],[-74.0694129,40.6908095],[-74.0694425,40.6907572],[-74.0694484,40.6907468],[-74.069459,40.690723],[-74.0694649,40.6907031],[-74.0694704,40.6906326],[-74.0695483,40.6904204],[-74.0696638,40.6901135],[-74.0697411,40.6898498],[-74.0698478,40.6894195],[-74.0698999,40.6889946],[-74.0698896,40.6888591],[-74.0699003,40.6888098],[-74.0699286,40.6886964],[-74.0699296,40.6886387],[-74.0699244,40.6886068],[-74.069917,40.6885619],[-74.0699047,40.6885472],[-74.0698979,40.6885367],[-74.0698948,40.6885304],[-74.0698938,40.6885282],[-74.0698924,40.688524],[-74.0698953,40.6885115],[-74.069901,40.6884779],[-74.0699137,40.6884359],[-74.0698836,40.688295],[-74.0698727,40.6882614],[-74.0698509,40.6882235],[-74.069847,40.6881815],[-74.0698514,40.6881468],[-74.0699155,40.6879412],[-74.0699197,40.6879307],[-74.0699281,40.6879192],[-74.0699448,40.6878972],[-74.0699479,40.6878877],[-74.0699322,40.6878057],[-74.0698911,40.6876209],[-74.0698826,40.6875829],[-74.069867,40.68751],[-74.0698472,40.6874168],[-74.0698231,40.687301],[-74.0698214,40.6872615],[-74.0698198,40.6872225],[-74.0698177,40.6871746],[-74.0698149,40.6870098],[-74.0698143,40.6868646],[-74.0698138,40.6866945],[-74.0698156,40.686665],[-74.0698237,40.6866095],[-74.0698373,40.6865405],[-74.0698389,40.6865275],[-74.069839,40.686511],[-74.069836,40.6864968],[-74.0697798,40.6863147],[-74.0697227,40.686145],[-74.0696541,40.6859582],[-74.0696251,40.6858825],[-74.0696222,40.6858553],[-74.0696238,40.6858388],[-74.069624,40.6858223],[-74.069635,40.6857857],[-74.069684,40.6856489],[-74.0697093,40.6855758],[-74.0697235,40.6855345],[-74.069733,40.6855144],[-74.0697392,40.6855062],[-74.0697486,40.6855015],[-74.0697626,40.6854992],[-74.069786,40.6855024],[-74.0700966,40.6847696],[-74.0702102,40.684684],[-74.0701166,40.6846162],[-74.0698949,40.6844557],[-74.0698894,40.6844501],[-74.0698965,40.6844451],[-74.0701093,40.6842871],[-74.0704352,40.6840296],[-74.0705365,40.6839497],[-74.0705459,40.6839462],[-74.0705591,40.6839457],[-74.0705699,40.6839492],[-74.0711914,40.6844092],[-74.0716043,40.6847288],[-74.0716352,40.6847527],[-74.0719231,40.6849704],[-74.0720111,40.6850369],[-74.0724334,40.6853521],[-74.0727175,40.6855657],[-74.0730224,40.6857965],[-74.0731174,40.6858647],[-74.0732077,40.6859295],[-74.073359,40.6860493],[-74.0733744,40.6860647],[-74.0731819,40.6862063],[-74.0731883,40.6862397],[-74.0731954,40.6862772],[-74.0732015,40.6862985],[-74.0732184,40.6863186],[-74.0732431,40.6863376],[-74.0732539,40.6863483],[-74.0732616,40.6863613],[-74.0732677,40.6863779],[-74.0732675,40.6864121],[-74.0732773,40.6864541],[-74.0732925,40.6865025],[-74.0733139,40.6865451],[-74.0733492,40.6866126],[-74.0733868,40.6866735],[-74.0734299,40.6867292],[-74.0734699,40.6867778],[-74.0735393,40.6868394],[-74.0737694,40.6870127],[-74.0739967,40.6871762],[-74.0740837,40.6872388],[-74.074201,40.6873349],[-74.0743662,40.6874548],[-74.0744562,40.6875109],[-74.074663,40.6875899],[-74.0746849,40.687589],[-74.0747024,40.6876356],[-74.0746926,40.6876979],[-74.0746873,40.6877264],[-74.0746923,40.68775],[-74.0747089,40.6878182],[-74.0747242,40.6878507],[-74.074746,40.6878714],[-74.0747758,40.6878916],[-74.0748311,40.6879242],[-74.0748403,40.6879345],[-74.0748969,40.6879632],[-74.074951,40.6879801],[-74.0749947,40.687991],[-74.0750643,40.688005],[-74.0752891,40.6880353],[-74.0753058,40.6880422],[-74.0753212,40.688056],[-74.0753282,40.6881243],[-74.0753281,40.688136],[-74.0753353,40.688166],[-74.0753481,40.6881857],[-74.0753647,40.6882034],[-74.0753776,40.6882094],[-74.0754245,40.6882321],[-74.0756233,40.6882957],[-74.0756735,40.6883027],[-74.0757006,40.6883038],[-74.07572,40.6883019],[-74.0757581,40.68829],[-74.0757752,40.6883306],[-74.075874,40.6886127],[-74.075886,40.688647],[-74.0758969,40.6886608],[-74.0759059,40.6886648],[-74.0759253,40.6886658],[-74.0759421,40.6886629],[-74.0760169,40.6886446],[-74.0760776,40.6886389],[-74.0761954,40.6886381],[-74.0762942,40.6886416],[-74.0764076,40.6886548],[-74.0764875,40.688659],[-74.0766785,40.6886656],[-74.0771304,40.6886437],[-74.0772194,40.6886323],[-74.0772775,40.6886197],[-74.0773169,40.6886211],[-74.0773271,40.6886248],[-74.0773876,40.6886366],[-74.0774301,40.6886448],[-74.0775197,40.6886461],[-74.077668,40.6886447],[-74.0778409,40.6886267],[-74.0779052,40.6886192],[-74.0780133,40.6886012],[-74.0780361,40.6886042],[-74.0780724,40.6886168],[-74.0780994,40.6886335],[-74.0781421,40.6887142],[-74.0781806,40.6887506],[-74.0782654,40.6887922],[-74.0783381,40.6888199],[-74.0783967,40.6888299],[-74.0784289,40.688833],[-74.0784598,40.6888361],[-74.0785294,40.688851],[-74.0785641,40.6888629],[-74.0785949,40.6888807],[-74.0786296,40.6889124],[-74.0786993,40.6889405],[-74.0787328,40.6889485],[-74.0787944,40.6889547],[-74.0792589,40.6889484],[-74.0792679,40.6889534],[-74.0792756,40.6889602],[-74.0793024,40.6889986],[-74.0793075,40.6890045],[-74.079332,40.6890105],[-74.07935,40.6890106],[-74.0793797,40.6890048],[-74.0794095,40.6889912],[-74.079423,40.6889873],[-74.0794443,40.6889854],[-74.079512,40.6889886],[-74.0795984,40.688986],[-74.0797061,40.6889883],[-74.0797364,40.6889845],[-74.0797583,40.6889787],[-74.0798308,40.6889456],[-74.0798683,40.688931],[-74.079885,40.6889262],[-74.0799805,40.6889167],[-74.0799935,40.6889059],[-74.0799993,40.6888922],[-74.0799921,40.6888757],[-74.0799839,40.688869],[-74.0799682,40.6888739],[-74.0799553,40.6888808],[-74.0799333,40.6888866],[-74.0799062,40.6888875],[-74.0798856,40.6888864],[-74.079874,40.6888834],[-74.079856,40.6888745],[-74.0798393,40.6888686],[-74.0798236,40.6888612],[-74.0798119,40.6888621],[-74.0797965,40.6888611],[-74.0797655,40.6888619],[-74.0796984,40.6888725],[-74.0796739,40.6888743],[-74.0796346,40.6888693],[-74.0796147,40.6888624],[-74.0795955,40.6888387],[-74.0795853,40.6888083],[-74.0795805,40.6887503],[-74.079582,40.6887258],[-74.0796025,40.688695],[-74.0796647,40.6886402],[-74.0797669,40.6885675],[-74.0797926,40.688546],[-74.0798095,40.6885284],[-74.0798251,40.6885117],[-74.079833,40.6884882],[-74.0798408,40.6884765],[-74.0798707,40.6884402],[-74.0798853,40.6884094],[-74.0798917,40.6883814],[-74.0798957,40.6883748],[-74.0799021,40.6883663],[-74.0799092,40.6883589],[-74.0799913,40.6882959],[-74.0800173,40.6882759],[-74.0801363,40.6881777],[-74.08015,40.688161],[-74.0801721,40.6881327],[-74.0802023,40.6880842],[-74.0802451,40.6880559],[-74.0802762,40.6880354],[-74.0802865,40.6880227],[-74.0802918,40.6880031],[-74.080285,40.6879945],[-74.0802634,40.6879779],[-74.0799895,40.6877919],[-74.0795737,40.6875116],[-74.0788891,40.6870582],[-74.07868,40.6869197],[-74.0780299,40.6864517],[-74.0777969,40.686284],[-74.0771537,40.6858451],[-74.0765678,40.6854331],[-74.0764688,40.6853701],[-74.0764473,40.6853471],[-74.0764517,40.6853306],[-74.0765558,40.6852553],[-74.0746303,40.6838658],[-74.0746088,40.6838542],[-74.0745958,40.6838558],[-74.0744566,40.6839706],[-74.0736025,40.6833646],[-74.073384,40.6832007],[-74.0723842,40.6825348],[-74.0723865,40.6825167],[-74.07243,40.6824807],[-74.0724344,40.6824724],[-74.0722469,40.6823532],[-74.0722188,40.6823481],[-74.0722036,40.682353],[-74.072169,40.6823611],[-74.0721347,40.6823657],[-74.0720017,40.6822756],[-74.0711006,40.6816649],[-74.0707446,40.6807762],[-74.0707166,40.6807678],[-74.0706972,40.6807463],[-74.0706619,40.6806886],[-74.0706589,40.6806694],[-74.0706577,40.6806622],[-74.0706622,40.6806392],[-74.0706753,40.6806194],[-74.0707144,40.6805998],[-74.0708491,40.6805147],[-74.0709883,40.6804032],[-74.0710826,40.6803424],[-74.0711664,40.6802885],[-74.0713621,40.6801443],[-74.0715273,40.6800131],[-74.0717056,40.679882],[-74.0717621,40.6798427],[-74.0717748,40.6798153],[-74.0717972,40.6797671],[-74.0717974,40.679744],[-74.0717759,40.679711],[-74.0717544,40.679701],[-74.0717327,40.6796977],[-74.0714606,40.6796209],[-74.0712448,40.6795443],[-74.0709772,40.679428],[-74.0707874,40.6793383],[-74.0706668,40.6792555],[-74.0706453,40.6792324],[-74.070641,40.6792192],[-74.0706411,40.6792093],[-74.0706714,40.6791996],[-74.0707233,40.6792063],[-74.0708789,40.6792432],[-74.0709694,40.6792929],[-74.0712973,40.6794523],[-74.0715865,40.6795522],[-74.071889,40.6796291],[-74.0720316,40.6796559],[-74.0721959,40.6796763],[-74.0725526,40.6797205],[-74.0729202,40.6797581],[-74.0731494,40.6797754],[-74.0734652,40.6797897],[-74.0736641,40.6798201],[-74.0737204,40.679817],[-74.0737486,40.6798023],[-74.0737725,40.6797777],[-74.0737292,40.6796111],[-74.0737381,40.6795815],[-74.0737643,40.6795421],[-74.07381,40.6795027],[-74.0738819,40.6794157],[-74.074004,40.6792663],[-74.0744367,40.6787721],[-74.0746121,40.678575],[-74.0748123,40.6783913],[-74.0748319,40.6783716],[-74.0748277,40.6783518],[-74.0748083,40.6783419],[-74.0725161,40.6771582],[-74.0726588,40.6769926],[-74.072669,40.6769912],[-74.0726958,40.6769913],[-74.0727109,40.6769913],[-74.0727243,40.6769914],[-74.0727361,40.676985],[-74.0728086,40.6769088],[-74.0728137,40.6769088],[-74.0729164,40.6769666],[-74.0735284,40.6772954],[-74.0741289,40.6776154],[-74.0749598,40.6780509],[-74.0750066,40.6780779],[-74.075015,40.6780779],[-74.07503,40.678078],[-74.0750384,40.6780755],[-74.075067,40.678059],[-74.0751041,40.6780349],[-74.0751614,40.677984],[-74.0752356,40.6779078],[-74.0752997,40.6778391],[-74.0753571,40.6777615],[-74.0753808,40.6777271],[-74.0753961,40.6776915],[-74.0754047,40.6776685],[-74.0754932,40.6775744],[-74.0756334,40.6774129],[-74.0756385,40.6774053],[-74.0756385,40.6773976],[-74.0756268,40.6773899],[-74.0755917,40.677377],[-74.0751265,40.6771329],[-74.0742255,40.6766537],[-74.0726112,40.675807],[-74.0726063,40.6757993],[-74.0726063,40.6757891],[-74.0726131,40.6757802],[-74.0729767,40.6753822],[-74.073002,40.6753567],[-74.0730222,40.6753466],[-74.073044,40.6753518],[-74.0736629,40.6756603],[-74.0751433,40.6764644],[-74.0757719,40.6768057],[-74.0757905,40.6768122],[-74.0758074,40.6768097],[-74.0758278,40.6767982],[-74.0760021,40.6766143],[-74.0762518,40.6763537],[-74.0766061,40.6759684],[-74.0766196,40.6759595],[-74.0766346,40.6759596],[-74.0766514,40.6759596],[-74.0767349,40.676002],[-74.0767349,40.6760123],[-74.0767332,40.6760186],[-74.0762751,40.6765081],[-74.07613,40.6766594],[-74.0760794,40.6767103],[-74.0760221,40.6767624],[-74.0759497,40.676817],[-74.0759209,40.6768628],[-74.0759208,40.6768756],[-74.0759292,40.6768807],[-74.0759535,40.676895],[-74.0759793,40.6769102],[-74.075991,40.6769103],[-74.0760095,40.6769052],[-74.0760565,40.676885],[-74.0761053,40.6768494],[-74.0761492,40.676805],[-74.0761864,40.676749],[-74.0762288,40.67667],[-74.0762626,40.6766255],[-74.0763453,40.6765339],[-74.0765716,40.6762786],[-74.0768102,40.6760329],[-74.0768675,40.675977],[-74.0769266,40.6759083],[-74.0769993,40.675804],[-74.0770845,40.6757163],[-74.0771974,40.6756146],[-74.0772226,40.6755994],[-74.0772461,40.6756007],[-74.0797163,40.6767746],[-74.0804645,40.6771242],[-74.0809849,40.6773712],[-74.0810175,40.67734],[-74.0810481,40.6772874],[-74.0811155,40.6772395],[-74.0811275,40.6772218],[-74.0811536,40.6771939],[-74.0811732,40.6771759],[-74.0812145,40.677153],[-74.0812471,40.67713],[-74.0812689,40.6771038],[-74.0812908,40.6770659],[-74.0812951,40.6770495],[-74.0813085,40.6769985],[-74.0813239,40.676959],[-74.0813262,40.6769261],[-74.0813329,40.6768948],[-74.0813374,40.6768767],[-74.0813375,40.676852],[-74.0813269,40.6768272],[-74.081301,40.6768041],[-74.081286,40.6767892],[-74.0812753,40.676771],[-74.0812754,40.676748],[-74.0812888,40.676692],[-74.0813063,40.6766493],[-74.0813273,40.6765769],[-74.0813212,40.6765225],[-74.0812999,40.676473],[-74.0811729,40.6763153],[-74.0810657,40.6762119],[-74.0809948,40.676126],[-74.0809346,40.6760731],[-74.0807534,40.6759802],[-74.0805399,40.6758723],[-74.0780337,40.6746393],[-74.0772788,40.674274],[-74.0771417,40.6742224],[-74.0769678,40.6741606],[-74.0767789,40.6740859],[-74.0764104,40.6739327],[-74.0754593,40.6735464],[-74.0753039,40.6734795],[-74.075172,40.6734089],[-74.0748987,40.6732905],[-74.0745846,40.6731477],[-74.0742969,40.6730213],[-74.0733564,40.6725961],[-74.0727077,40.6723753],[-74.0724972,40.6722826],[-74.0719482,40.6720484],[-74.071745,40.6719864],[-74.0715862,40.6719309],[-74.0713987,40.6718958],[-74.0712374,40.6718327],[-74.0711873,40.6718108],[-74.0710204,40.6717094],[-74.0708649,40.6716514],[-74.0707346,40.6715897],[-74.0702604,40.671334],[-74.0700415,40.6712311],[-74.069745,40.6710871],[-74.0694577,40.670947],[-74.0693507,40.6709007],[-74.0692956,40.6708788],[-74.069242,40.6708671],[-74.0691977,40.6708618],[-74.0690887,40.670864],[-74.068839,40.6708668],[-74.0686371,40.6708648],[-74.0685944,40.6708583],[-74.0685585,40.6708441],[-74.0684566,40.6707965],[-74.068348,40.6707413],[-74.0683247,40.6707246],[-74.0682962,40.6707219],[-74.0682208,40.670728],[-74.0681823,40.6707228],[-74.0681488,40.6707124],[-74.0676952,40.6705015],[-74.067463,40.6703725],[-74.0673109,40.6702737],[-74.0672195,40.6702267],[-74.0663102,40.6698711],[-74.0662133,40.6698274],[-74.0661633,40.6697998],[-74.0660006,40.6696837],[-74.0658305,40.6695631],[-74.065787,40.6695502],[-74.0656607,40.6695217],[-74.0654735,40.6694482],[-74.0649882,40.6692244],[-74.0649281,40.6691872],[-74.0648648,40.6691334],[-74.0648515,40.669118],[-74.0648465,40.6691014],[-74.0648455,40.6690666],[-74.0648503,40.6690376],[-74.0648644,40.6689369],[-74.0648817,40.6688464],[-74.0648882,40.6687913],[-74.0649003,40.6686895],[-74.0649059,40.668604],[-74.0649129,40.668553],[-74.0649198,40.6685301],[-74.0649401,40.6684906],[-74.0649622,40.6684435],[-74.0649861,40.6683747],[-74.0650082,40.6683365],[-74.0650368,40.6683149],[-74.0650654,40.6682933],[-74.0650899,40.6682666],[-74.0651086,40.6682246],[-74.0651157,40.6681647],[-74.0651214,40.6680601],[-74.0651304,40.6679644],[-74.0651544,40.6678854],[-74.0651984,40.6678052],[-74.0652272,40.6677581],[-74.0652636,40.6677123],[-74.0653041,40.6676665],[-74.0653252,40.6676387],[-74.0653717,40.6675775],[-74.0657155,40.6670402],[-74.0702351,40.6689396],[-74.0702763,40.668957],[-74.0722637,40.6697994],[-74.0741198,40.6705781],[-74.0756894,40.6712366],[-74.0757124,40.6712462],[-74.0758473,40.6713028],[-74.0758687,40.6713117],[-74.0771017,40.671829],[-74.0771052,40.6718304],[-74.0772596,40.6718952],[-74.0772615,40.671896],[-74.0795548,40.6728579],[-74.083739,40.6746128],[-74.0839554,40.6747036],[-74.0884168,40.6765744],[-74.0884741,40.6765985],[-74.0890486,40.6768394],[-74.0892091,40.6769066],[-74.0892929,40.6769418],[-74.0920007,40.678072],[-74.093477,40.6786881],[-74.0949073,40.6792848],[-74.0961234,40.6797922],[-74.0974291,40.6803409],[-74.0975441,40.6804447],[-74.0979334,40.6807964],[-74.0982575,40.6814458],[-74.0986606,40.6825021],[-74.0988021,40.6828611],[-74.0988291,40.6830065],[-74.0988622,40.683102],[-74.0990613,40.6836418],[-74.0991451,40.6838788],[-74.0994698,40.6847835],[-74.0996939,40.6853946]]],[[[-74.0399132,40.7008881],[-74.0394565,40.700536],[-74.0393937,40.7005786],[-74.0393812,40.7005827],[-74.0393645,40.7005795],[-74.0386349,40.7000296],[-74.0386294,40.7000295],[-74.0376952,40.6993424],[-74.0377883,40.6992749],[-74.0380778,40.6990458],[-74.0382088,40.6983767],[-74.0382186,40.6983709],[-74.0382283,40.698371],[-74.0389908,40.698374],[-74.0390732,40.6983146],[-74.0393161,40.6981295],[-74.0393439,40.6981275],[-74.0393605,40.6981318],[-74.0399188,40.6985463],[-74.0402607,40.6988151],[-74.0411418,40.6994762],[-74.0412353,40.6995464],[-74.0414032,40.6994005],[-74.0413839,40.6993809],[-74.0415124,40.6992725],[-74.0415442,40.6992938],[-74.0417285,40.6991539],[-74.0409909,40.6985685],[-74.0403608,40.6980872],[-74.0399105,40.6977292],[-74.0399079,40.6977143],[-74.0410356,40.6969144],[-74.0416442,40.6964665],[-74.0416706,40.6964682],[-74.0416761,40.6964709],[-74.0417022,40.696492],[-74.0436779,40.6980332],[-74.0436402,40.6980616],[-74.0436526,40.6980807],[-74.0430984,40.6984865],[-74.0426949,40.6987978],[-74.042692,40.6988002],[-74.0429616,40.6990018],[-74.0422405,40.6995707],[-74.0412723,40.7003461],[-74.0411921,40.7004103],[-74.0410863,40.700495],[-74.0407806,40.7002696],[-74.0399457,40.7008873],[-74.0399307,40.7008901],[-74.0399132,40.7008881]]],[[[-74.0404717,40.6995663],[-74.0404679,40.6995365],[-74.0404681,40.6995009],[-74.0404568,40.6994752],[-74.0404398,40.6994466],[-74.0404276,40.6994217],[-74.0404161,40.6994122],[-74.0404034,40.6994017],[-74.0403526,40.6993831],[-74.040317,40.6993732],[-74.0402795,40.6993588],[-74.040244,40.6993417],[-74.0402121,40.6993232],[-74.0401914,40.6992861],[-74.0401914,40.6992533],[-74.0401878,40.6992234],[-74.0401595,40.6992048],[-74.0400713,40.6991804],[-74.0399815,40.6991319],[-74.0399494,40.6991062],[-74.0399007,40.6990763],[-74.0398632,40.6990506],[-74.0398163,40.6990192],[-74.0397976,40.698985],[-74.0397995,40.698945],[-74.0398258,40.6989194],[-74.0398697,40.6989015],[-74.0399112,40.6988917],[-74.0399527,40.6988898],[-74.0399876,40.6988948],[-74.0400297,40.6989061],[-74.0400452,40.698911],[-74.040061,40.6989155],[-74.0400977,40.6989424],[-74.0401469,40.6989057],[-74.0401516,40.6989097],[-74.0402164,40.6988621],[-74.0402402,40.6988445],[-74.0402355,40.698841],[-74.0400796,40.6987229],[-74.0399324,40.6985979],[-74.039671,40.6987837],[-74.0396486,40.6987982],[-74.039633,40.6987982],[-74.0395868,40.6987987],[-74.0395397,40.6987957],[-74.0395098,40.6987886],[-74.0394891,40.6987857],[-74.0394703,40.6987601],[-74.0394399,40.6987476],[-74.0394129,40.6987456],[-74.0393778,40.6987397],[-74.0393662,40.698717],[-74.0393429,40.6986923],[-74.0393185,40.698673],[-74.0392865,40.6986401],[-74.0392463,40.6986223],[-74.0392069,40.6986122],[-74.0391693,40.6986036],[-74.0391168,40.6986007],[-74.0390625,40.6986049],[-74.0390079,40.698602],[-74.038961,40.6986033],[-74.0389267,40.6986152],[-74.0388802,40.6986191],[-74.0388287,40.6986323],[-74.0387811,40.6986443],[-74.0387455,40.6986454],[-74.0387138,40.6986622],[-74.0386822,40.6986683],[-74.0386542,40.6986711],[-74.0386357,40.6986753],[-74.0386226,40.6986795],[-74.0386043,40.6986851],[-74.0386244,40.6987061],[-74.0386078,40.6987258],[-74.0385708,40.6987383],[-74.0385283,40.69872],[-74.0385063,40.6987103],[-74.0384784,40.698699],[-74.0384544,40.6986891],[-74.0384211,40.6986737],[-74.0383934,40.6986738],[-74.0383737,40.6986768],[-74.0383698,40.6986948],[-74.0383816,40.6987218],[-74.0383975,40.6987368],[-74.038413,40.6987639],[-74.0384369,40.6987999],[-74.0384565,40.6988329],[-74.0384684,40.6988781],[-74.0384644,40.6989321],[-74.0384604,40.6989891],[-74.0384683,40.6990251],[-74.0384997,40.6990822],[-74.0384951,40.6991234],[-74.0385116,40.6991552],[-74.0385344,40.6991805],[-74.0385624,40.6992012],[-74.0385999,40.6992183],[-74.0386336,40.6992468],[-74.0386656,40.6992711],[-74.0386984,40.6992875],[-74.0387246,40.6993103],[-74.038749,40.6993445],[-74.0387603,40.6993759],[-74.0387733,40.6994058],[-74.0387846,40.6994145],[-74.0387976,40.6994473],[-74.0388032,40.6994957],[-74.0388164,40.6995398],[-74.0388396,40.6995705],[-74.038881,40.6996104],[-74.0388942,40.6996333],[-74.0389373,40.6996632],[-74.0389915,40.6996704],[-74.0390253,40.6996705],[-74.039076,40.6996762],[-74.0391229,40.6996792],[-74.0391643,40.699685],[-74.0392112,40.6996893],[-74.0392562,40.699695],[-74.0392881,40.6997164],[-74.0393313,40.6997351],[-74.0393829,40.6997586],[-74.0394297,40.6997715],[-74.0394785,40.69979],[-74.0395123,40.6998243],[-74.039548,40.6998514],[-74.0395874,40.6998615],[-74.039623,40.6998644],[-74.0396661,40.6998815],[-74.0396905,40.6999072],[-74.0397149,40.6999358],[-74.0397397,40.6999535],[-74.0397468,40.6999586],[-74.0397842,40.6999601],[-74.0398265,40.6999637],[-74.0398603,40.6999738],[-74.0399016,40.6999894],[-74.0399354,40.7000024],[-74.0399672,40.7000265],[-74.0399952,40.7000494],[-74.0400235,40.7000693],[-74.0400498,40.7000823],[-74.0400835,40.7001008],[-74.0401211,40.7001023],[-74.0401548,40.7001108],[-74.0401886,40.7001223],[-74.0402506,40.7001253],[-74.0402842,40.7001196],[-74.0403302,40.7001089],[-74.0403771,40.7001204],[-74.0404166,40.7001347],[-74.0404616,40.7001577],[-74.0404973,40.7001705],[-74.0405292,40.7001847],[-74.0405704,40.7001962],[-74.0406136,40.7002091],[-74.0406491,40.7002219],[-74.040698,40.7002235],[-74.0407318,40.7002008],[-74.0407486,40.7001751],[-74.0407412,40.7001394],[-74.0407263,40.7001138],[-74.0407207,40.7001038],[-74.0407037,40.7000795],[-74.0406926,40.7000582],[-74.0406888,40.7000182],[-74.0406852,40.6999913],[-74.0406759,40.6999698],[-74.0406758,40.6999429],[-74.0406645,40.6999157],[-74.0406458,40.6998915],[-74.0406252,40.6998687],[-74.0406168,40.6998366],[-74.0406188,40.6998109],[-74.0406132,40.699774],[-74.0406019,40.6997468],[-74.0405793,40.6997183],[-74.040555,40.6996883],[-74.0405326,40.6996656],[-74.0405138,40.6996356],[-74.0404857,40.6996028],[-74.0404717,40.6995663]]],[[[-74.054016,40.7641375],[-74.0520591,40.7608654],[-74.0519402,40.7606666],[-74.0518679,40.7605457],[-74.0518174,40.7604612],[-74.0513491,40.7601105],[-74.0498827,40.7595238],[-74.0495932,40.7592184],[-74.0495791,40.7591962],[-74.0494518,40.759],[-74.0493702,40.7588355],[-74.0493205,40.7587095],[-74.0492796,40.758643],[-74.0492156,40.7585973],[-74.0491194,40.758548],[-74.0488713,40.7584612],[-74.0486244,40.7583748],[-74.0471712,40.7578731],[-74.0460851,40.7574858],[-74.0996939,40.6853946],[-74.0997219,40.6854707],[-74.0997748,40.685615],[-74.0998657,40.6858627],[-74.0998957,40.6859445],[-74.1000195,40.6862729],[-74.1000832,40.686442],[-74.1001368,40.6865566],[-74.1002175,40.6867146],[-74.100223,40.6867254],[-74.1003717,40.6870168],[-74.1005104,40.6872883],[-74.100742,40.6877417],[-74.1007679,40.6877924],[-74.1009197,40.6880894],[-74.101075,40.6884128],[-74.1016343,40.6895631],[-74.1016591,40.6896057],[-74.1019335,40.6900781],[-74.1019474,40.6901125],[-74.1019602,40.6901471],[-74.101972,40.690182],[-74.102037,40.690497],[-74.1020378,40.6905007],[-74.1020382,40.6905209],[-74.102039,40.6905652],[-74.1020393,40.6905806],[-74.1020377,40.6906291],[-74.1020341,40.6906775],[-74.1020286,40.6907259],[-74.1020211,40.690774],[-74.1020118,40.690822],[-74.1020079,40.6908396],[-74.1019974,40.6908818],[-74.1019906,40.6908957],[-74.1019825,40.6909091],[-74.1019732,40.6909222],[-74.1019627,40.6909346],[-74.1018719,40.6910162],[-74.1013498,40.6915662],[-74.1013179,40.6915992],[-74.1012878,40.6916331],[-74.1012593,40.6916679],[-74.1012327,40.6917035],[-74.1012078,40.6917398],[-74.1011848,40.6917768],[-74.1011636,40.6918144],[-74.1011444,40.6918527],[-74.1011271,40.6918914],[-74.1011117,40.6919306],[-74.1010983,40.6919703],[-74.101087,40.6920103],[-74.1010776,40.6920505],[-74.1010703,40.6920911],[-74.101065,40.6921318],[-74.1010618,40.6921726],[-74.1010606,40.6922135],[-74.1010614,40.6922544],[-74.1010644,40.6922953],[-74.1010693,40.692336],[-74.1010812,40.6923813],[-74.1010949,40.6924263],[-74.1011104,40.692471],[-74.1011277,40.6925153],[-74.1011466,40.6925592],[-74.1011674,40.6926026],[-74.1011898,40.6926455],[-74.1014504,40.6930673],[-74.101468,40.6930945],[-74.1015591,40.6932352],[-74.1016147,40.6933211],[-74.1016383,40.6933575],[-74.1017776,40.6935688],[-74.101843,40.6936679],[-74.1018559,40.6936875],[-74.1018609,40.6936951],[-74.1019702,40.6938608],[-74.102244,40.694276],[-74.1027665,40.6950642],[-74.1027832,40.6951004],[-74.102798,40.6951371],[-74.1028111,40.6951741],[-74.1028224,40.6952115],[-74.1028328,40.6952527],[-74.1028405,40.6952914],[-74.1028463,40.6953302],[-74.1028502,40.6953692],[-74.1028502,40.6953709],[-74.1028505,40.695422],[-74.102852,40.6954227],[-74.1029202,40.6954562],[-74.1031201,40.6955545],[-74.1034862,40.6957354],[-74.1035051,40.6957446],[-74.1035461,40.6957649],[-74.1036564,40.6958192],[-74.1036686,40.6958253],[-74.103968,40.6959729],[-74.1040161,40.6959967],[-74.1045547,40.6962623],[-74.1051684,40.6965619],[-74.105902,40.6969195],[-74.106446,40.6971832],[-74.1142192,40.7009498],[-74.1142317,40.7009559],[-74.1142176,40.7010212],[-74.1141728,40.7012284],[-74.1140973,40.7022844],[-74.1141244,40.7036047],[-74.1143094,40.7046087],[-74.114788,40.7058514],[-74.1153853,40.7075697],[-74.1161049,40.7091564],[-74.1164077,40.7097351],[-74.1152271,40.710949],[-74.1138692,40.712314],[-74.1130636,40.7130278],[-74.1114354,40.7143472],[-74.1101669,40.715375],[-74.1096434,40.7157339],[-74.1087586,40.7163403],[-74.1074703,40.7170753],[-74.1054893,40.7181004],[-74.1047667,40.7184385],[-74.1039785,40.7188096],[-74.1033926,40.7190983],[-74.1029764,40.7193295],[-74.102538,40.7196104],[-74.1020885,40.7199245],[-74.1017701,40.7202307],[-74.1013404,40.7207773],[-74.100873,40.7214487],[-74.1005312,40.7220041],[-74.1000893,40.7228665],[-74.0999018,40.7233865],[-74.0993797,40.7256246],[-74.0993025,40.7259555],[-74.0990647,40.7269746],[-74.0989866,40.7274143],[-74.0988492,40.7281885],[-74.0984952,40.7293227],[-74.0978968,40.7307201],[-74.0973699,40.731748],[-74.0968614,40.7326176],[-74.0958095,40.7343567],[-74.0951098,40.735252],[-74.094445,40.736121],[-74.0939561,40.7365946],[-74.0933981,40.7370151],[-74.0929518,40.7372555],[-74.0922875,40.7376063],[-74.090369,40.7384831],[-74.0901752,40.7385785],[-74.0890437,40.7389537],[-74.0882862,40.7392012],[-74.08703,40.739535],[-74.0841095,40.7402298],[-74.081867,40.7407762],[-74.0813975,40.7409408],[-74.0805795,40.7412538],[-74.0794304,40.7417971],[-74.0780022,40.7425577],[-74.0769913,40.7432141],[-74.0763625,40.7438191],[-74.0757126,40.744629],[-74.075372,40.7451408],[-74.0751514,40.7455337],[-74.0750155,40.7459056],[-74.0749586,40.7462168],[-74.0748692,40.746946],[-74.0749243,40.7475039],[-74.0750168,40.7479861],[-74.0751469,40.7482521],[-74.0753573,40.7485898],[-74.0757069,40.7489736],[-74.0761409,40.7493637],[-74.0765865,40.749638],[-74.0768967,40.749815],[-74.077145,40.7499309],[-74.0774629,40.7500114],[-74.0779537,40.7501192],[-74.0782595,40.7501737],[-74.0788313,40.7502216],[-74.0788525,40.7502225],[-74.0776803,40.7517872],[-74.0774555,40.7520228],[-74.0773639,40.7521112],[-74.0772794,40.7521709],[-74.0772056,40.7522065],[-74.0771232,40.7522343],[-74.0769946,40.7522709],[-74.0768046,40.7522956],[-74.076699,40.7523066],[-74.0764144,40.7523215],[-74.0762322,40.7523345],[-74.0760472,40.7523553],[-74.0758623,40.7523858],[-74.0755776,40.7524597],[-74.0755757,40.7524604],[-74.0755059,40.7524901],[-74.0754268,40.7525358],[-74.0753581,40.7525855],[-74.0753131,40.7526333],[-74.0752601,40.7527011],[-74.0752307,40.7527562],[-74.0752098,40.7528117],[-74.0751966,40.7528585],[-74.0751886,40.752917],[-74.0751908,40.7529687],[-74.075202,40.7530322],[-74.0752177,40.753084],[-74.0752379,40.7531328],[-74.0754432,40.7534331],[-74.0755005,40.7535065],[-74.0755622,40.7535769],[-74.0756339,40.7536519],[-74.0757697,40.7537783],[-74.0758969,40.7539021],[-74.0760793,40.7540712],[-74.0761845,40.7541695],[-74.0762725,40.7542586],[-74.0763439,40.754334],[-74.0763885,40.7543829],[-74.0764475,40.7544778],[-74.0764589,40.7545071],[-74.0764785,40.754555],[-74.0765085,40.7546771],[-74.0765197,40.7547337],[-74.0765233,40.7547747],[-74.076523,40.7548157],[-74.0765189,40.7548556],[-74.0765011,40.7549123],[-74.0764771,40.7549722],[-74.0764478,40.755026],[-74.0764253,40.7550529],[-74.0764072,40.7550699],[-74.0763711,40.7550977],[-74.0762999,40.7551434],[-74.0762388,40.7551712],[-74.076179,40.755192],[-74.0761102,40.7552086],[-74.0760155,40.7552283],[-74.0759129,40.7552419],[-74.0755354,40.7552779],[-74.0753373,40.7553079],[-74.075275,40.7553218],[-74.0752152,40.7553387],[-74.0751625,40.7553614],[-74.0751037,40.7553928],[-74.0750684,40.7554206],[-74.0750244,40.7554605],[-74.0749767,40.7555163],[-74.074957,40.7555407],[-74.0748943,40.7556195],[-74.074867,40.7556711],[-74.0748466,40.7557217],[-74.0748292,40.7557816],[-74.0748209,40.7558495],[-74.0748167,40.7559099],[-74.0748189,40.7559695],[-74.0748331,40.7560632],[-74.0748506,40.7561315],[-74.0748688,40.7561931],[-74.0748864,40.7562497],[-74.0749294,40.7563397],[-74.0749921,40.7564657],[-74.0751039,40.7567481],[-74.0751189,40.7568116],[-74.0751299,40.7568984],[-74.0751419,40.75702],[-74.075146,40.7570946],[-74.0751456,40.7571571],[-74.075133,40.7572195],[-74.0750614,40.7574768],[-74.0750293,40.7575832],[-74.0750053,40.7576391],[-74.0749759,40.7577129],[-74.0749464,40.7577967],[-74.0749169,40.7578906],[-74.0748821,40.7579884],[-74.0748505,40.7580633],[-74.0748251,40.758115],[-74.0748004,40.7581568],[-74.0747694,40.7581948],[-74.0747321,40.7582297],[-74.0746755,40.7582773],[-74.0746002,40.7583273],[-74.0745287,40.7583656],[-74.07441,40.7584208],[-74.0743639,40.7584418],[-74.0743187,40.7584579],[-74.0742586,40.7584733],[-74.0741953,40.758483],[-74.0741174,40.7584908],[-74.0741115,40.7584915],[-74.0740647,40.7584994],[-74.0740433,40.7585043],[-74.073985,40.7585167],[-74.0734454,40.7587423],[-74.0733878,40.7587569],[-74.0733411,40.7587641],[-74.0732719,40.7587742],[-74.0731784,40.7587842],[-74.0730791,40.7587964],[-74.0729812,40.7588131],[-74.0728574,40.7588422],[-74.0727794,40.7588649],[-74.0727237,40.7588861],[-74.0726662,40.7589111],[-74.0726221,40.7589394],[-74.0726002,40.7589589],[-74.0725679,40.7589936],[-74.072548,40.7590191],[-74.0725266,40.759049],[-74.0725049,40.7590888],[-74.0724813,40.7591376],[-74.0724615,40.7591901],[-74.0724439,40.7592526],[-74.072431,40.759318],[-74.0724079,40.759494],[-74.0723928,40.7596462],[-74.0723787,40.75979],[-74.0723631,40.7598779],[-74.0723451,40.7599556],[-74.0723275,40.7599937],[-74.0723057,40.7600368],[-74.0722811,40.7600737],[-74.0722468,40.7601084],[-74.0722244,40.7601231],[-74.072196,40.7601378],[-74.072142,40.7601637],[-74.072139,40.7601651],[-74.0720184,40.7602184],[-74.0720133,40.7602207],[-74.0716758,40.7603786],[-74.0714316,40.760505],[-74.0712343,40.7606123],[-74.0709258,40.7607795],[-74.0708442,40.7608232],[-74.0707357,40.760888],[-74.0705046,40.7610358],[-74.0704504,40.7610689],[-74.0704211,40.7610851],[-74.0703899,40.7610968],[-74.0703445,40.7611092],[-74.0686751,40.7619369],[-74.0685939,40.7619759],[-74.0685304,40.7620038],[-74.0681572,40.7621379],[-74.0681337,40.7621474],[-74.068005,40.7621871],[-74.067884,40.7622269],[-74.0678639,40.7622322],[-74.0673832,40.7623695],[-74.0672104,40.7624253],[-74.0668802,40.7625461],[-74.0667429,40.7626069],[-74.0664271,40.7627498],[-74.0662902,40.7628181],[-74.0660548,40.7629492],[-74.0659455,40.7630166],[-74.0657939,40.7631118],[-74.0657092,40.7631719],[-74.0656281,40.7632367],[-74.0654301,40.7634218],[-74.0653064,40.7635357],[-74.0652413,40.7635931],[-74.0651498,40.7636569],[-74.0650774,40.7637031],[-74.0650209,40.7637317],[-74.0649315,40.763763],[-74.0648348,40.7637858],[-74.0646867,40.7638122],[-74.0645453,40.7638275],[-74.0644463,40.7638308],[-74.0643657,40.763825],[-74.0642814,40.7638126],[-74.0641727,40.7637908],[-74.0640495,40.7637562],[-74.0640332,40.7637515],[-74.0638974,40.7637088],[-74.0638006,40.7636693],[-74.0637236,40.7636299],[-74.0636447,40.7635844],[-74.0635559,40.7635253],[-74.0633007,40.763318],[-74.062755,40.7628671],[-74.0625897,40.7627353],[-74.0625015,40.7626728],[-74.0624206,40.7626364],[-74.0622502,40.7625647],[-74.0621862,40.7625408],[-74.0619964,40.7624754],[-74.0617942,40.7624202],[-74.0616259,40.7623822],[-74.0615091,40.7623655],[-74.0614083,40.7623531],[-74.0613253,40.7623507],[-74.0612416,40.7623545],[-74.0609427,40.7623856],[-74.0607867,40.7624039],[-74.0606487,40.7624155],[-74.0605472,40.7624252],[-74.0604165,40.7624351],[-74.0603461,40.7624419],[-74.0602916,40.7624508],[-74.0602172,40.7624681],[-74.0601847,40.7624765],[-74.0601488,40.7624878],[-74.0601436,40.7624892],[-74.0601064,40.7625032],[-74.0600784,40.7625162],[-74.0600217,40.7625499],[-74.0599815,40.7625844],[-74.0599463,40.7626236],[-74.0599299,40.7626473],[-74.0599141,40.7626856],[-74.0599064,40.7627141],[-74.059904,40.7627303],[-74.0599036,40.7627877],[-74.0599074,40.762815],[-74.0599118,40.7628503],[-74.0599274,40.7629018],[-74.0599444,40.7629361],[-74.0599627,40.7629755],[-74.0599758,40.7630058],[-74.0599875,40.7630411],[-74.0600128,40.7631149],[-74.0600232,40.7631482],[-74.0600309,40.7631855],[-74.0600294,40.7632208],[-74.0600272,40.7632701],[-74.0600234,40.7633145],[-74.0600193,40.7633458],[-74.0600023,40.7634104],[-74.0599848,40.7634649],[-74.0599695,40.7634995],[-74.0599531,40.7635364],[-74.0599282,40.7635747],[-74.0599043,40.7636031],[-74.0598408,40.7636567],[-74.0597664,40.7637279],[-74.0597043,40.7637993],[-74.0596627,40.7638656],[-74.05965,40.7638944],[-74.0596384,40.7639423],[-74.0596299,40.7640006],[-74.0596336,40.7641194],[-74.0596392,40.7641859],[-74.0596507,40.764254],[-74.0596917,40.7643832],[-74.0598318,40.7647115],[-74.0598757,40.7648223],[-74.0599421,40.7650161],[-74.0599603,40.7650949],[-74.0599951,40.7652825],[-74.0600079,40.7654128],[-74.0600156,40.7655495],[-74.0600142,40.7656179],[-74.060008,40.7656563],[-74.0599932,40.7657005],[-74.0599751,40.7657345],[-74.0599404,40.7657865],[-74.0598843,40.7658538],[-74.0597475,40.7659903],[-74.0596759,40.7660574],[-74.0596019,40.7661178],[-74.0593995,40.7662491],[-74.0591946,40.7663848],[-74.0591018,40.7664442],[-74.0590504,40.7664715],[-74.058981,40.7665035],[-74.0588511,40.7665518],[-74.0587291,40.7666048],[-74.0586269,40.7666499],[-74.0585821,40.7666732],[-74.0585306,40.7667056],[-74.0584737,40.7667574],[-74.0583476,40.7669093],[-74.0581517,40.7671365],[-74.0580325,40.7672897],[-74.0579201,40.7674547],[-74.0573604,40.7683988],[-74.057138,40.7687644],[-74.0570942,40.7688382],[-74.0570651,40.7688783],[-74.0570308,40.7689197],[-74.0569542,40.7690105],[-74.0567006,40.7685954],[-74.0566188,40.7684575],[-74.0565484,40.7683385],[-74.0559165,40.7673019],[-74.055412,40.7664614],[-74.0548802,40.7655824],[-74.054016,40.7641375]]]]}}
